OBJECT_NAME,OBJECT_ID,EPOCH,MEAN_MOTION,ECCENTRICITY,INCLINATION,RA_OF_ASC_NODE,ARG_OF_PERICENTER,MEAN_ANOMALY,EPHEMERIS_TYPE,CLASSIFICATION_TYPE,NORAD_CAT_ID,ELEMENT_SET_NO,REV_AT_EPOCH,BSTAR,MEAN_MOTION_DOT,MEAN_MOTION_DDOT
STARLINK-30471,2023-147V,2026-07-11T17:44:20.049216,15.27572324,.0001066,43.0030,344.3087,248.8446,111.2292,0,U,57932,999,15557,.10404E-4,.24E-6,0
STARLINK-30461,2023-147W,2026-07-11T17:38:46.377600,15.27580830,.0001551,43.0059,344.2790,268.5947,91.4727,0,U,57933,999,15557,.41839E-4,.889E-5,0
STARLINK-30712,2023-148A,2026-07-11T07:17:40.324416,15.34370810,.00010349,53.1596,168.3258,95.0729,265.0391,0,U,57935,999,15737,-.1939676E-4,-.1031E-4,0
STARLINK-30716,2023-148B,2026-07-11T08:38:16.808928,15.30205399,.00008967,53.1603,169.9913,106.1218,253.9881,0,U,57936,999,15735,-.3622414E-5,-.466E-5,0
STARLINK-30400,2023-148C,2026-07-11T09:39:53.046720,15.34393357,.0001683,53.1497,168.1804,123.5228,236.5936,0,U,57937,999,15738,.28086228E-4,.572E-5,0
STARLINK-30710,2023-148D,2026-07-11T06:50:15.066240,15.34388146,.0001387,53.1595,158.3205,78.7481,281.3677,0,U,57938,999,15750,.23958629E-4,.433E-5,0
STARLINK-30714,2023-148E,2026-07-11T08:33:18.702144,15.31735015,.00015413,53.1576,169.9567,82.5259,277.5918,0,U,57939,999,15735,.11688984E-2,.36123E-3,0
STARLINK-30711,2023-148F,2026-07-11T10:16:53.730624,15.30203310,.00012089,53.1597,169.7133,84.4963,275.6176,0,U,57940,999,15736,-.1746149E-4,-.876E-5,0
STARLINK-30715,2023-148G,2026-07-11T09:04:05.395872,15.30193144,.00009237,53.1596,159.4664,82.6810,277.4296,0,U,57941,999,15750,.23413281E-4,.334E-5,0
STARLINK-30455,2023-148H,2026-07-11T10:11:27.238848,15.33560459,.00021287,53.1557,169.6361,80.4561,279.6682,0,U,57942,999,15736,.71447028E-4,.1978E-4,0
STARLINK-30456,2023-148J,2026-07-09T15:48:21.527136,15.30207272,.00009197,53.1584,177.9380,93.9934,266.1172,0,U,57943,999,15709,.50449694E-4,.1136E-4,0
STARLINK-30708,2023-148K,2026-07-11T07:47:54.739968,15.34406979,.00013413,53.1586,168.4387,89.9387,270.1769,0,U,57944,999,15737,-.69827307E-4,-.2735E-4,0
STARLINK-30705,2023-148L,2026-07-11T10:58:33.660192,15.34385082,.00030038,53.1482,167.8581,72.3969,287.7361,0,U,57945,999,15739,-.33275768E-4,-.1501E-4,0
STARLINK-30704,2023-148M,2026-07-11T11:09:05.729760,15.34388301,.00011563,53.1584,245.4403,79.4434,280.6699,0,U,57946,999,15628,-.25230107E-4,-.1228E-4,0
STARLINK-30706,2023-148N,2026-07-11T05:37:46.325280,15.34369879,.00018743,53.1578,168.5786,103.5361,256.5851,0,U,57947,999,15736,.7541888E-4,.217E-4,0
STARLINK-30707,2023-148Q,2026-07-09T16:27:52.755264,15.34408293,.00008366,53.1581,175.9842,95.5851,264.5247,0,U,57949,999,15712,.12036831E-3,.3694E-4,0
STARLINK-30701,2023-148R,2026-07-11T08:27:18.192096,15.34390961,.00017307,53.1608,168.5902,76.8830,283.2366,0,U,57950,999,15737,.33226574E-4,.746E-5,0
STARLINK-30713,2023-148T,2026-07-11T08:03:03.860640,15.34397922,.00006973,53.1566,168.5043,99.1871,260.9210,0,U,57952,999,15737,.24268049E-4,.444E-5,0
STARLINK-30700,2023-148U,2026-07-09T15:56:00.310272,15.30189806,.00014863,53.1625,167.6505,72.9102,287.2062,0,U,57953,999,15723,.60738623E-3,.17667E-3,0
STARLINK-30702,2023-148W,2026-07-09T15:48:27.441216,15.34387822,.00003879,53.1589,166.4404,117.7842,242.3200,0,U,57955,999,15725,.63065706E-4,.1755E-4,0
STARLINK-30524,2023-151B,2026-07-11T11:09:15.538752,15.27563498,.00031192,43.0110,357.2217,272.8986,87.1508,0,U,57965,999,15469,.41345259E-4,.874E-5,0
STARLINK-30521,2023-151C,2026-07-11T11:55:17.049504,15.27579770,.00013828,43.0073,356.5922,215.6308,144.4452,0,U,57966,999,15470,.21182692E-4,.321E-5,0
STARLINK-30528,2023-151D,2026-07-11T12:00:48.510144,15.27591989,.00016066,43.0057,356.6201,172.2111,187.8766,0,U,57967,999,15470,.54298646E-4,.1233E-4,0
STARLINK-30494,2023-151G,2026-07-11T11:02:03.448896,15.27586203,.00014699,43.0026,211.5648,269.4708,90.5975,0,U,57970,999,15638,-.49028734E-4,-.1611E-4,0
