[ {"name": "STARLINK-30471", "line1": "1 57932U 23147V   26192.73912094  .00000024  00000+0  10404-4 0  9996", "line2": "2 57932  43.0030 344.3087 0001066 248.8446 111.2292 15.27572324155575"}, {"name": "STARLINK-30461", "line1": "1 57933U 23147W   26192.73525901  .00000889  00000+0  41839-4 0  9999", "line2": "2 57933  43.0059 344.2790 0001551 268.5947  91.4727 15.27580831155575"}, {"name": "STARLINK-30712", "line1": "1 57935U 23148A   26192.30393894 -.00001031  00000+0 -19397-4 0  9995", "line2": "2 57935  53.1596 168.3258 0001034  95.0729 265.0391 15.34370810157374"}, {"name": "STARLINK-30716", "line1": "1 57936U 23148B   26192.35991677 -.00000466  00000+0 -36224-5 0  9994", "line2": "2 57936  53.1603 169.9913 0000896 106.1218 253.9881 15.30205399157354"}, {"name": "STARLINK-30400", "line1": "1 57937U 23148C   26192.40269730  .00000572  00000+0  28086-4 0  9991", "line2": "2 57937  53.1497 168.1804 0001683 123.5228 236.5936 15.34393357157382"}, {"name": "STARLINK-30710", "line1": "1 57938U 23148D   26192.28489660  .00000433  00000+0  23959-4 0  9994", "line2": "2 57938  53.1595 158.3205 0001387  78.7481 281.3677 15.34388146157505"}, {"name": "STARLINK-30714", "line1": "1 57939U 23148E   26192.35646646  .00036123  00000+0  11689-2 0  9992", "line2": "2 57939  53.1576 169.9567 0001541  82.5259 277.5918 15.31735015157358"}, {"name": "STARLINK-30711", "line1": "1 57940U 23148F   26192.42839966 -.00000876  00000+0 -17461-4 0  9995", "line2": "2 57940  53.1597 169.7133 0001208  84.4963 275.6176 15.30203310157366"}, {"name": "STARLINK-30715", "line1": "1 57941U 23148G   26192.37784023  .00000334  00000+0  23413-4 0  9994", "line2": "2 57941  53.1596 159.4664 0000923  82.6810 277.4296 15.30193144157507"}, {"name": "STARLINK-30455", "line1": "1 57942U 23148H   26192.42462082  .00001978  00000+0  71447-4 0  9994", "line2": "2 57942  53.1557 169.6361 0002128  80.4561 279.6682 15.33560459157367"}, {"name": "STARLINK-30456", "line1": "1 57943U 23148J   26190.65858249  .00001136  00000+0  50450-4 0  9999", "line2": "2 57943  53.1584 177.9380 0000919  93.9934 266.1172 15.30207272157093"}, {"name": "STARLINK-30708", "line1": "1 57944U 23148K   26192.32493912 -.00002735  00000+0 -69827-4 0  9994", "line2": "2 57944  53.1586 168.4387 0001341  89.9387 270.1769 15.34406979157372"}, {"name": "STARLINK-30705", "line1": "1 57945U 23148L   26192.45733403 -.00001501  00000+0 -33276-4 0  9990", "line2": "2 57945  53.1482 167.8581 0003003  72.3969 287.7361 15.34385082157391"}, {"name": "STARLINK-30704", "line1": "1 57946U 23148M   26192.46464965 -.00001228  00000+0 -25230-4 0  9993", "line2": "2 57946  53.1584 245.4403 0001156  79.4434 280.6699 15.34388301156283"}, {"name": "STARLINK-30706", "line1": "1 57947U 23148N   26192.23456395  .00002170  00000+0  75419-4 0  9996", "line2": "2 57947  53.1578 168.5786 0001874 103.5361 256.5851 15.34369879157362"}, {"name": "STARLINK-30707", "line1": "1 57949U 23148Q   26190.68602726  .00003694  00000+0  12037-3 0  9994", "line2": "2 57949  53.1581 175.9842 0000836  95.5851 264.5247 15.34408293157120"}, {"name": "STARLINK-30701", "line1": "1 57950U 23148R   26192.35229389  .00000746  00000+0  33227-4 0  9992", "line2": "2 57950  53.1608 168.5902 0001730  76.8830 283.2366 15.34390961157379"}, {"name": "STARLINK-30713", "line1": "1 57952U 23148T   26192.33546135  .00000444  00000+0  24268-4 0  9993", "line2": "2 57952  53.1566 168.5043 0000697  99.1871 260.9210 15.34397922157378"}, {"name": "STARLINK-30700", "line1": "1 57953U 23148U   26190.66389248  .00017667  00000+0  60739-3 0  9995", "line2": "2 57953  53.1625 167.6505 0001486  72.9102 287.2062 15.30189806157239"}, {"name": "STARLINK-30702", "line1": "1 57955U 23148W   26190.65865094  .00001755  00000+0  63066-4 0  9992", "line2": "2 57955  53.1589 166.4404 0000387 117.7842 242.3200 15.34387822157253"}, {"name": "STARLINK-30524", "line1": "1 57965U 23151B   26192.46476318  .00000874  00000+0  41345-4 0  9992", "line2": "2 57965  43.0110 357.2217 0003119 272.8986  87.1508 15.27563498154690"}, {"name": "STARLINK-30521", "line1": "1 57966U 23151C   26192.49672511  .00000321  00000+0  21183-4 0  9994", "line2": "2 57966  43.0073 356.5922 0001382 215.6308 144.4452 15.27579770154704"}, {"name": "STARLINK-30528", "line1": "1 57967U 23151D   26192.50056146  .00001233  00000+0  54299-4 0  9994", "line2": "2 57967  43.0057 356.6201 0001606 172.2111 187.8766 15.27591989154702"}, {"name": "STARLINK-30494", "line1": "1 57970U 23151G   26192.45976214 -.00001611  00000+0 -49029-4 0  9996", "line2": "2 57970  43.0026 211.5648 0001469 269.4708  90.5975 15.27586203156385"}]